YAM-10                  
1 64580U 25135BE  26200.87621424  .00000897  00000+0  94254-4 0  9994
2 64580  97.7755 314.2801 0002035 221.8498 138.2566 14.91909897 58739
YAM-11                  
1 68991U 26100M   26200.67930292  .00000629  00000+0  69860-4 0  9999
2 68991  97.7767  97.3712 0009569 346.1895  13.9060 14.90612987 11538
YAM-16                  
1 68992U 26100N   26201.15896560  .00000627  00000+0  68110-4 0  9998
2 68992  97.7330  97.9644 0004539  50.9879 309.1743 14.91523364 11617
YAM-13                  
1 68993U 26100P   26201.17230691  .00000682  00000+0  75638-4 0  9992
2 68993  97.7842  97.9580 0009172 341.8589  18.2300 14.90419036 11619
YAM-15                  
1 68997U 26100T   26201.15801741  .00000602  00000+0  67103-4 0  9994
2 68997  97.7798  97.9682 0008884 356.1935   3.9214 14.90655474 11612
YAM-12                  
1 69003U 26100Z   26201.13283775  .00002460  00000+0  25774-3 0  9993
2 69003  97.7815  97.8293 0009943 334.3247  25.7476 14.90463521 11598
YAM-14                  
1 69008U 26100AE  26200.99182834  .00000750  00000+0  82784-4 0  9990
2 69008  97.7769  97.7148 0005832  22.9813 337.1665 14.90357834 11578
