{"fetched_at":"2026-07-20T18:29:55.258Z","source":"https://celestrak.org/NORAD/elements/gp.php?NAME=YAM&FORMAT=JSON","constellation":"earthdaily-constellation","records":[{"OBJECT_NAME":"YAM-10","OBJECT_ID":"2025-135BE","EPOCH":"2026-07-19T21:01:44.910336","CLASSIFICATION_TYPE":"U","MEAN_MOTION":14.91909897,"ECCENTRICITY":0.00020352,"INCLINATION":97.7755,"RA_OF_ASC_NODE":314.2801,"ARG_OF_PERICENTER":221.8498,"MEAN_ANOMALY":138.2566,"EPHEMERIS_TYPE":0,"NORAD_CAT_ID":64580,"ELEMENT_SET_NO":999,"REV_AT_EPOCH":5873,"BSTAR":0.00009425372,"MEAN_MOTION_DOT":0.00000897,"MEAN_MOTION_DDOT":0},{"OBJECT_NAME":"YAM-11","OBJECT_ID":"2026-100M","EPOCH":"2026-07-19T16:18:11.772288","CLASSIFICATION_TYPE":"U","MEAN_MOTION":14.90612987,"ECCENTRICITY":0.00095692,"INCLINATION":97.7767,"RA_OF_ASC_NODE":97.3712,"ARG_OF_PERICENTER":346.1895,"MEAN_ANOMALY":13.906,"EPHEMERIS_TYPE":0,"NORAD_CAT_ID":68991,"ELEMENT_SET_NO":999,"REV_AT_EPOCH":1153,"BSTAR":0.000069859986,"MEAN_MOTION_DOT":0.00000629,"MEAN_MOTION_DDOT":0},{"OBJECT_NAME":"YAM-16","OBJECT_ID":"2026-100N","EPOCH":"2026-07-20T03:48:54.627840","CLASSIFICATION_TYPE":"U","MEAN_MOTION":14.91523364,"ECCENTRICITY":0.00045398,"INCLINATION":97.733,"RA_OF_ASC_NODE":97.9644,"ARG_OF_PERICENTER":50.9879,"MEAN_ANOMALY":309.1743,"EPHEMERIS_TYPE":0,"NORAD_CAT_ID":68992,"ELEMENT_SET_NO":999,"REV_AT_EPOCH":1161,"BSTAR":0.000068110273,"MEAN_MOTION_DOT":0.00000627,"MEAN_MOTION_DDOT":0},{"OBJECT_NAME":"YAM-13","OBJECT_ID":"2026-100P","EPOCH":"2026-07-20T04:08:07.317024","CLASSIFICATION_TYPE":"U","MEAN_MOTION":14.90419036,"ECCENTRICITY":0.00091721,"INCLINATION":97.7842,"RA_OF_ASC_NODE":97.958,"ARG_OF_PERICENTER":341.8589,"MEAN_ANOMALY":18.23,"EPHEMERIS_TYPE":0,"NORAD_CAT_ID":68993,"ELEMENT_SET_NO":999,"REV_AT_EPOCH":1161,"BSTAR":0.000075638288,"MEAN_MOTION_DOT":0.00000682,"MEAN_MOTION_DDOT":0},{"OBJECT_NAME":"YAM-15","OBJECT_ID":"2026-100T","EPOCH":"2026-07-20T03:47:32.704224","CLASSIFICATION_TYPE":"U","MEAN_MOTION":14.90655474,"ECCENTRICITY":0.00088845,"INCLINATION":97.7798,"RA_OF_ASC_NODE":97.9682,"ARG_OF_PERICENTER":356.1935,"MEAN_ANOMALY":3.9214,"EPHEMERIS_TYPE":0,"NORAD_CAT_ID":68997,"ELEMENT_SET_NO":999,"REV_AT_EPOCH":1161,"BSTAR":0.000067103495,"MEAN_MOTION_DOT":0.00000602,"MEAN_MOTION_DDOT":0},{"OBJECT_NAME":"YAM-12","OBJECT_ID":"2026-100Z","EPOCH":"2026-07-20T03:11:17.181600","CLASSIFICATION_TYPE":"U","MEAN_MOTION":14.90463521,"ECCENTRICITY":0.00099437,"INCLINATION":97.7815,"RA_OF_ASC_NODE":97.8293,"ARG_OF_PERICENTER":334.3247,"MEAN_ANOMALY":25.7476,"EPHEMERIS_TYPE":0,"NORAD_CAT_ID":69003,"ELEMENT_SET_NO":999,"REV_AT_EPOCH":1159,"BSTAR":0.00025773835,"MEAN_MOTION_DOT":0.0000246,"MEAN_MOTION_DDOT":0},{"OBJECT_NAME":"YAM-14","OBJECT_ID":"2026-100AE","EPOCH":"2026-07-19T23:48:13.968576","CLASSIFICATION_TYPE":"U","MEAN_MOTION":14.90357834,"ECCENTRICITY":0.00058329,"INCLINATION":97.7769,"RA_OF_ASC_NODE":97.7148,"ARG_OF_PERICENTER":22.9813,"MEAN_ANOMALY":337.1665,"EPHEMERIS_TYPE":0,"NORAD_CAT_ID":69008,"ELEMENT_SET_NO":999,"REV_AT_EPOCH":1157,"BSTAR":0.000082784403,"MEAN_MOTION_DOT":0.0000075,"MEAN_MOTION_DDOT":0}]}
